{"type": "FeatureCollection", "features": [ {"type": "Feature", "properties": {"norad_id": 17070, "name": "POLAR BEAR", "group": "nnss", "lat": 64.85918069406267, "lon": 3.2225126813497926, "alt_km": 947.182639542214, "timestamp": "2025-12-06T03:35:02.139258+00:00", "meta": {"OBJECT_NAME": "POLAR BEAR", "OBJECT_ID": "1986-088A", "EPOCH": "2025-12-05T03:07:21.352800", "MEAN_MOTION": 13.7524847, "ECCENTRICITY": 0.00404408, "INCLINATION": 89.618, "RA_OF_ASC_NODE": 184.078, "ARG_OF_PERICENTER": 141.3841, "MEAN_ANOMALY": 330.9052, "EPHEMERIS_TYPE": 0, "CLASSIFICATION_TYPE": "U", "NORAD_CAT_ID": 17070, "ELEMENT_SET_NO": 999, "REV_AT_EPOCH": 95874, "BSTAR": 0.00017104672, "MEAN_MOTION_DOT": 1.76e-06, "MEAN_MOTION_DDOT": 0}, "tle": {"line1": "1 17070U 86088A   25339.13010825  .00000176  00000+0  17105-3 0  9997", "line2": "2 17070  89.6180 184.0780 0040440 141.3841 330.9052 13.75248470958747"}}, "geometry": {"type": "Point", "coordinates": [3.2225126813497926, 64.85918069406267]}}, {"type": "Feature", "properties": {"norad_id": 18361, "name": "OSCAR 27", "group": "nnss", "lat": 12.441926944518434, "lon": 78.94309047808603, "alt_km": 1140.5711056680575, "timestamp": "2025-12-06T03:35:02.139268+00:00", "meta": {"OBJECT_NAME": "OSCAR 27", "OBJECT_ID": "1987-080A", "EPOCH": "2025-12-05T07:52:48.633024", "MEAN_MOTION": 13.44904212, "ECCENTRICITY": 0.01024879, "INCLINATION": 90.3742, "RA_OF_ASC_NODE": 78.995, "ARG_OF_PERICENTER": 245.328, "MEAN_ANOMALY": 113.7169, "EPHEMERIS_TYPE": 0, "CLASSIFICATION_TYPE": "U", "NORAD_CAT_ID": 18361, "ELEMENT_SET_NO": 999, "REV_AT_EPOCH": 87457, "BSTAR": 0.00025897148, "MEAN_MOTION_DOT": 1.64e-06, "MEAN_MOTION_DDOT": 0}, "tle": {"line1": "1 18361U 87080A   25339.32834066  .00000164  00000+0  25897-3 0  9990", "line2": "2 18361  90.3742  78.9950 0102487 245.3280 113.7169 13.44904212874579"}}, "geometry": {"type": "Point", "coordinates": [78.94309047808603, 12.441926944518434]}}, {"type": "Feature", "properties": {"norad_id": 18362, "name": "OSCAR 29", "group": "nnss", "lat": 35.529182894470786, "lon": 79.21588861492616, "alt_km": 1138.9058546239648, "timestamp": "2025-12-06T03:35:02.139279+00:00", "meta": {"OBJECT_NAME": "OSCAR 29", "OBJECT_ID": "1987-080B", "EPOCH": "2025-12-05T08:04:21.814176", "MEAN_MOTION": 13.44446218, "ECCENTRICITY": 0.01037437, "INCLINATION": 90.3755, "RA_OF_ASC_NODE": 79.4537, "ARG_OF_PERICENTER": 268.7145, "MEAN_ANOMALY": 153.5408, "EPHEMERIS_TYPE": 0, "CLASSIFICATION_TYPE": "U", "NORAD_CAT_ID": 18362, "ELEMENT_SET_NO": 999, "REV_AT_EPOCH": 87410, "BSTAR": 0.00022435132, "MEAN_MOTION_DOT": 1.42e-06, "MEAN_MOTION_DDOT": 0}, "tle": {"line1": "1 18362U 87080B   25339.33636359  .00000142  00000+0  22435-3 0  9998", "line2": "2 18362  90.3755  79.4537 0103743 268.7145 153.5408 13.44446218874100"}}, "geometry": {"type": "Point", "coordinates": [79.21588861492616, 35.529182894470786]}}, {"type": "Feature", "properties": {"norad_id": 19070, "name": "OSCAR 23", "group": "nnss", "lat": -25.17772810386018, "lon": -163.96305190007632, "alt_km": 1019.3418948657982, "timestamp": "2025-12-06T03:35:02.139290+00:00", "meta": {"OBJECT_NAME": "OSCAR 23", "OBJECT_ID": "1988-033A", "EPOCH": "2025-12-05T03:21:21.689568", "MEAN_MOTION": 13.27785384, "ECCENTRICITY": 0.01888934, "INCLINATION": 90.3221, "RA_OF_ASC_NODE": 16.1569, "ARG_OF_PERICENTER": 201.0835, "MEAN_ANOMALY": 221.1239, "EPHEMERIS_TYPE": 0, "CLASSIFICATION_TYPE": "U", "NORAD_CAT_ID": 19070, "ELEMENT_SET_NO": 999, "REV_AT_EPOCH": 82152, "BSTAR": 0.00022833755, "MEAN_MOTION_DOT": 1.21e-06, "MEAN_MOTION_DDOT": 0}, "tle": {"line1": "1 19070U 88033A   25339.13983437  .00000121  00000+0  22834-3 0  9994", "line2": "2 19070  90.3221  16.1569 0188893 201.0835 221.1239 13.27785384821526"}}, "geometry": {"type": "Point", "coordinates": [-163.96305190007632, -25.17772810386018]}}, {"type": "Feature", "properties": {"norad_id": 19071, "name": "OSCAR 32", "group": "nnss", "lat": -47.1899686873267, "lon": 16.668199786868172, "alt_km": 1246.2977275432931, "timestamp": "2025-12-06T03:35:02.139300+00:00", "meta": {"OBJECT_NAME": "OSCAR 32", "OBJECT_ID": "1988-033B", "EPOCH": "2025-12-05T07:59:59.138304", "MEAN_MOTION": 13.27952619, "ECCENTRICITY": 0.01877323, "INCLINATION": 90.3225, "RA_OF_ASC_NODE": 16.2943, "ARG_OF_PERICENTER": 187.3865, "MEAN_ANOMALY": 185.0338, "EPHEMERIS_TYPE": 0, "CLASSIFICATION_TYPE": "U", "NORAD_CAT_ID": 19071, "ELEMENT_SET_NO": 999, "REV_AT_EPOCH": 82167, "BSTAR": 0.00027501164, "MEAN_MOTION_DOT": 1.45e-06, "MEAN_MOTION_DDOT": 0}, "tle": {"line1": "1 19071U 88033B   25339.33332336  .00000145  00000+0  27501-3 0  9995", "line2": "2 19071  90.3225  16.2943 0187732 187.3865 185.0338 13.27952619821679"}}, "geometry": {"type": "Point", "coordinates": [16.668199786868172, -47.1899686873267]}}, {"type": "Feature", "properties": {"norad_id": 19223, "name": "NOVA 2", "group": "nnss", "lat": -87.01238415139366, "lon": -101.47600160746295, "alt_km": 1195.324142140692, "timestamp": "2025-12-06T03:35:02.139311+00:00", "meta": {"OBJECT_NAME": "NOVA 2", "OBJECT_ID": "1988-052A", "EPOCH": "2025-12-05T06:21:14.929632", "MEAN_MOTION": 13.22934582, "ECCENTRICITY": 0.00311815, "INCLINATION": 89.9873, "RA_OF_ASC_NODE": 78.2816, "ARG_OF_PERICENTER": 36.996, "MEAN_ANOMALY": 339.8907, "EPHEMERIS_TYPE": 0, "CLASSIFICATION_TYPE": "U", "NORAD_CAT_ID": 19223, "ELEMENT_SET_NO": 999, "REV_AT_EPOCH": 80849, "BSTAR": 0.00018384868, "MEAN_MOTION_DOT": 8.6e-07, "MEAN_MOTION_DDOT": 0}, "tle": {"line1": "1 19223U 88052A   25339.26475613  .00000086  00000+0  18385-3 0  9997", "line2": "2 19223  89.9873  78.2816 0031181  36.9960 339.8907 13.22934582808499"}}, "geometry": {"type": "Point", "coordinates": [-101.47600160746295, -87.01238415139366]}}, {"type": "Feature", "properties": {"norad_id": 19419, "name": "OSCAR 25", "group": "nnss", "lat": -56.593776610873434, "lon": -159.83109384439462, "alt_km": 1044.5907787453934, "timestamp": "2025-12-06T03:35:02.139321+00:00", "meta": {"OBJECT_NAME": "OSCAR 25", "OBJECT_ID": "1988-074A", "EPOCH": "2025-12-05T03:15:50.948640", "MEAN_MOTION": 13.42621213, "ECCENTRICITY": 0.00942382, "INCLINATION": 90.0353, "RA_OF_ASC_NODE": 20.2189, "ARG_OF_PERICENTER": 267.9325, "MEAN_ANOMALY": 114.1598, "EPHEMERIS_TYPE": 0, "CLASSIFICATION_TYPE": "U", "NORAD_CAT_ID": 19419, "ELEMENT_SET_NO": 999, "REV_AT_EPOCH": 82538, "BSTAR": 0.00029598365, "MEAN_MOTION_DOT": 1.8e-06, "MEAN_MOTION_DDOT": 0}, "tle": {"line1": "1 19419U 88074A   25339.13600635  .00000180  00000+0  29598-3 0  9991", "line2": "2 19419  90.0353  20.2189 0094238 267.9325 114.1598 13.42621213825388"}}, "geometry": {"type": "Point", "coordinates": [-159.83109384439462, -56.593776610873434]}}, {"type": "Feature", "properties": {"norad_id": 19420, "name": "OSCAR 31", "group": "nnss", "lat": 58.93409775449051, "lon": -159.36723393008677, "alt_km": 1145.2802234471392, "timestamp": "2025-12-06T03:35:02.139332+00:00", "meta": {"OBJECT_NAME": "OSCAR 31", "OBJECT_ID": "1988-074B", "EPOCH": "2025-12-05T04:02:48.420672", "MEAN_MOTION": 13.42582836, "ECCENTRICITY": 0.00924906, "INCLINATION": 90.037, "RA_OF_ASC_NODE": 20.5677, "ARG_OF_PERICENTER": 261.9459, "MEAN_ANOMALY": 162.4907, "EPHEMERIS_TYPE": 0, "CLASSIFICATION_TYPE": "U", "NORAD_CAT_ID": 19420, "ELEMENT_SET_NO": 999, "REV_AT_EPOCH": 82549, "BSTAR": 0.00024739882, "MEAN_MOTION_DOT": 1.52e-06, "MEAN_MOTION_DDOT": 0}, "tle": {"line1": "1 19420U 88074B   25339.16861598  .00000152  00000+0  24740-3 0  9996", "line2": "2 19420  90.0370  20.5677 0092490 261.9459 162.4907 13.42582836825493"}}, "geometry": {"type": "Point", "coordinates": [-159.36723393008677, 58.93409775449051]}}]}